PELICAN-3               
1 65315U 25188A   26116.47945044  .00010603  00000+0  26217-3 0  9997
2 65315  97.1985 193.4127 0002823 131.2834 228.8656 15.40635537 37359
PELICAN-4               
1 65316U 25188B   26115.78020165  .00001128  00000+0  29711-4 0  9994
2 65316  97.2049 192.8692 0005256 163.5854 196.5564 15.40614772 37240
PELICAN-5               
1 66667U 25276B   26115.78501603  .00003973  00000+0  14608-3 0  9991
2 66667  97.4167 190.9552 0004539 149.4728 210.6777 15.28471228 22514
PELICAN-6               
1 66703U 25276AP  26115.91809382  .00006852  00000+0  24704-3 0  9999
2 66703  97.4158 191.2462 0002785  62.6463 297.5060 15.28856215 22547
FLOCK 4H-1              
1 66704U 25276AQ  26116.51140709  .00007332  00000+0  34384-3 0  9997
2 66704  97.4194 191.0328 0003487 122.3495 237.8078 15.19957219 22582
FLOCK 4H-2              
1 66705U 25276AR  26116.43286909  .00007878  00000+0  36647-3 0  9991
2 66705  97.4189 190.9771 0002694 120.3863 239.7638 15.20216160 22570
FLOCK 4H-3              
1 66706U 25276AS  26116.44284639  .00008168  00000+0  38948-3 0  9990
2 66706  97.4256 190.9451 0004597 161.8297 198.3103 15.19340878 22564
FLOCK 4H-4              
1 66707U 25276AT  26115.74235719  .00006589  00000+0  31716-3 0  9999
2 66707  97.4241 190.1690 0005089 167.4430 192.6932 15.19086807 22458
FLOCK 4H-5              
1 66708U 25276AU  26116.44054314  .00007902  00000+0  36980-3 0  9996
2 66708  97.4194 190.9791 0002230 115.6658 244.4807 15.20009162 22579
FLOCK 4H-6              
1 66709U 25276AV  26116.46990131  .00007502  00000+0  35460-3 0  9993
2 66709  97.4243 191.0369 0004418 136.6813 223.4770 15.19674413 22575
FLOCK 4H-7              
1 66710U 25276AW  26116.43895478  .00007732  00000+0  36815-3 0  9990
2 66710  97.4202 190.8370 0002414 168.7509 191.3780 15.19418485 22561
FLOCK 4H-8              
1 66711U 25276AX  26116.50063448  .00008146  00000+0  38671-3 0  9995
2 66711  97.4241 190.9941 0003780 171.1368 188.9934 15.19498645 22578
FLOCK 4H-9              
1 66712U 25276AY  26116.46414068  .00007790  00000+0  36683-3 0  9994
2 66712  97.4234 191.0270 0004426 142.0318 218.1230 15.19794307 22577
FLOCK 4H-10             
1 66713U 25276AZ  26116.45750583  .00007351  00000+0  35205-3 0  9991
2 66713  97.4207 190.8282 0005045 165.1056 195.0328 15.19223017 22566
FLOCK 4H-11             
1 66714U 25276BA  26115.76309905  .00014101  00000+0  63474-3 0  9993
2 66714  97.4217 190.4161 0003497 172.2023 187.9268 15.21187207 22478
FLOCK 4H-12             
1 66715U 25276BB  26116.51917845  .00007236  00000+0  34055-3 0  9990
2 66715  97.4204 191.0402 0003523 127.1813 232.9744 15.19838701 22891
FLOCK 4H-13             
1 66716U 25276BC  26115.70970337  .00006197  00000+0  29002-3 0  9997
2 66716  97.4238 190.3601 0002854 112.2910 247.8628 15.20093608 22461
