[{"OBJECT_NAME":"PELICAN-3","OBJECT_ID":"2025-188A","EPOCH":"2026-04-26T11:30:24.518016","MEAN_MOTION":15.40635537,"ECCENTRICITY":0.0002823,"INCLINATION":97.1985,"RA_OF_ASC_NODE":193.4127,"ARG_OF_PERICENTER":131.2834,"MEAN_ANOMALY":228.8656,"EPHEMERIS_TYPE":0,"CLASSIFICATION_TYPE":"U","NORAD_CAT_ID":65315,"ELEMENT_SET_NO":999,"REV_AT_EPOCH":3735,"BSTAR":0.00026217,"MEAN_MOTION_DOT":0.00010603,"MEAN_MOTION_DDOT":0},{"OBJECT_NAME":"PELICAN-4","OBJECT_ID":"2025-188B","EPOCH":"2026-04-25T18:43:29.422560","MEAN_MOTION":15.40614772,"ECCENTRICITY":0.00052563,"INCLINATION":97.2049,"RA_OF_ASC_NODE":192.8692,"ARG_OF_PERICENTER":163.5854,"MEAN_ANOMALY":196.5564,"EPHEMERIS_TYPE":0,"CLASSIFICATION_TYPE":"U","NORAD_CAT_ID":65316,"ELEMENT_SET_NO":999,"REV_AT_EPOCH":3724,"BSTAR":2.9711136e-5,"MEAN_MOTION_DOT":1.128e-5,"MEAN_MOTION_DDOT":0},{"OBJECT_NAME":"PELICAN-5","OBJECT_ID":"2025-276B","EPOCH":"2026-04-25T18:50:25.384992","MEAN_MOTION":15.28471228,"ECCENTRICITY":0.00045397,"INCLINATION":97.4167,"RA_OF_ASC_NODE":190.9552,"ARG_OF_PERICENTER":149.4728,"MEAN_ANOMALY":210.6777,"EPHEMERIS_TYPE":0,"CLASSIFICATION_TYPE":"U","NORAD_CAT_ID":66667,"ELEMENT_SET_NO":999,"REV_AT_EPOCH":2251,"BSTAR":0.00014608069,"MEAN_MOTION_DOT":3.973e-5,"MEAN_MOTION_DDOT":0},{"OBJECT_NAME":"PELICAN-6","OBJECT_ID":"2025-276AP","EPOCH":"2026-04-25T22:02:03.306048","MEAN_MOTION":15.28856215,"ECCENTRICITY":0.00027858,"INCLINATION":97.4158,"RA_OF_ASC_NODE":191.2462,"ARG_OF_PERICENTER":62.6463,"MEAN_ANOMALY":297.506,"EPHEMERIS_TYPE":0,"CLASSIFICATION_TYPE":"U","NORAD_CAT_ID":66703,"ELEMENT_SET_NO":999,"REV_AT_EPOCH":2254,"BSTAR":0.00024703612,"MEAN_MOTION_DOT":6.852e-5,"MEAN_MOTION_DDOT":0},{"OBJECT_NAME":"FLOCK 4H-1","OBJECT_ID":"2025-276AQ","EPOCH":"2026-04-26T12:16:25.572576","MEAN_MOTION":15.19957219,"ECCENTRICITY":0.0003487,"INCLINATION":97.4194,"RA_OF_ASC_NODE":191.0328,"ARG_OF_PERICENTER":122.3495,"MEAN_ANOMALY":237.8078,"EPHEMERIS_TYPE":0,"CLASSIFICATION_TYPE":"U","NORAD_CAT_ID":66704,"ELEMENT_SET_NO":999,"REV_AT_EPOCH":2258,"BSTAR":0.00034384,"MEAN_MOTION_DOT":7.332e-5,"MEAN_MOTION_DDOT":0},{"OBJECT_NAME":"FLOCK 4H-2","OBJECT_ID":"2025-276AR","EPOCH":"2026-04-26T10:23:19.889376","MEAN_MOTION":15.2021616,"ECCENTRICITY":0.0002694,"INCLINATION":97.4189,"RA_OF_ASC_NODE":190.9771,"ARG_OF_PERICENTER":120.3863,"MEAN_ANOMALY":239.7638,"EPHEMERIS_TYPE":0,"CLASSIFICATION_TYPE":"U","NORAD_CAT_ID":66705,"ELEMENT_SET_NO":999,"REV_AT_EPOCH":2257,"BSTAR":0.00036647,"MEAN_MOTION_DOT":7.878e-5,"MEAN_MOTION_DDOT":0},{"OBJECT_NAME":"FLOCK 4H-3","OBJECT_ID":"2025-276AS","EPOCH":"2026-04-26T10:37:41.928096","MEAN_MOTION":15.19340878,"ECCENTRICITY":0.0004597,"INCLINATION":97.4256,"RA_OF_ASC_NODE":190.9451,"ARG_OF_PERICENTER":161.8297,"MEAN_ANOMALY":198.3103,"EPHEMERIS_TYPE":0,"CLASSIFICATION_TYPE":"U","NORAD_CAT_ID":66706,"ELEMENT_SET_NO":999,"REV_AT_EPOCH":2256,"BSTAR":0.00038948,"MEAN_MOTION_DOT":8.168e-5,"MEAN_MOTION_DDOT":0},{"OBJECT_NAME":"FLOCK 4H-4","OBJECT_ID":"2025-276AT","EPOCH":"2026-04-25T17:48:59.661216","MEAN_MOTION":15.19086807,"ECCENTRICITY":0.00050898,"INCLINATION":97.4241,"RA_OF_ASC_NODE":190.169,"ARG_OF_PERICENTER":167.443,"MEAN_ANOMALY":192.6932,"EPHEMERIS_TYPE":0,"CLASSIFICATION_TYPE":"U","NORAD_CAT_ID":66707,"ELEMENT_SET_NO":999,"REV_AT_EPOCH":2245,"BSTAR":0.0003171561,"MEAN_MOTION_DOT":6.589e-5,"MEAN_MOTION_DDOT":0},{"OBJECT_NAME":"FLOCK 4H-5","OBJECT_ID":"2025-276AU","EPOCH":"2026-04-26T10:34:22.927296","MEAN_MOTION":15.20009162,"ECCENTRICITY":0.000223,"INCLINATION":97.4194,"RA_OF_ASC_NODE":190.9791,"ARG_OF_PERICENTER":115.6658,"MEAN_ANOMALY":244.4807,"EPHEMERIS_TYPE":0,"CLASSIFICATION_TYPE":"U","NORAD_CAT_ID":66708,"ELEMENT_SET_NO":999,"REV_AT_EPOCH":2257,"BSTAR":0.0003698,"MEAN_MOTION_DOT":7.902e-5,"MEAN_MOTION_DDOT":0},{"OBJECT_NAME":"FLOCK 4H-6","OBJECT_ID":"2025-276AV","EPOCH":"2026-04-26T11:16:39.473184","MEAN_MOTION":15.19674413,"ECCENTRICITY":0.0004418,"INCLINATION":97.4243,"RA_OF_ASC_NODE":191.0369,"ARG_OF_PERICENTER":136.6813,"MEAN_ANOMALY":223.477,"EPHEMERIS_TYPE":0,"CLASSIFICATION_TYPE":"U","NORAD_CAT_ID":66709,"ELEMENT_SET_NO":999,"REV_AT_EPOCH":2257,"BSTAR":0.0003546,"MEAN_MOTION_DOT":7.502e-5,"MEAN_MOTION_DDOT":0},{"OBJECT_NAME":"FLOCK 4H-7","OBJECT_ID":"2025-276AW","EPOCH":"2026-04-26T10:32:05.692992","MEAN_MOTION":15.19418485,"ECCENTRICITY":0.0002414,"INCLINATION":97.4202,"RA_OF_ASC_NODE":190.837,"ARG_OF_PERICENTER":168.7509,"MEAN_ANOMALY":191.378,"EPHEMERIS_TYPE":0,"CLASSIFICATION_TYPE":"U","NORAD_CAT_ID":66710,"ELEMENT_SET_NO":999,"REV_AT_EPOCH":2256,"BSTAR":0.00036815,"MEAN_MOTION_DOT":7.732e-5,"MEAN_MOTION_DDOT":0},{"OBJECT_NAME":"FLOCK 4H-8","OBJECT_ID":"2025-276AX","EPOCH":"2026-04-26T12:00:54.819072","MEAN_MOTION":15.19498645,"ECCENTRICITY":0.000378,"INCLINATION":97.4241,"RA_OF_ASC_NODE":190.9941,"ARG_OF_PERICENTER":171.1368,"MEAN_ANOMALY":188.9934,"EPHEMERIS_TYPE":0,"CLASSIFICATION_TYPE":"U","NORAD_CAT_ID":66711,"ELEMENT_SET_NO":999,"REV_AT_EPOCH":2257,"BSTAR":0.00038671,"MEAN_MOTION_DOT":8.146e-5,"MEAN_MOTION_DDOT":0},{"OBJECT_NAME":"FLOCK 4H-9","OBJECT_ID":"2025-276AY","EPOCH":"2026-04-26T11:08:21.754752","MEAN_MOTION":15.19794307,"ECCENTRICITY":0.0004426,"INCLINATION":97.4234,"RA_OF_ASC_NODE":191.027,"ARG_OF_PERICENTER":142.0318,"MEAN_ANOMALY":218.123,"EPHEMERIS_TYPE":0,"CLASSIFICATION_TYPE":"U","NORAD_CAT_ID":66712,"ELEMENT_SET_NO":999,"REV_AT_EPOCH":2257,"BSTAR":0.00036683,"MEAN_MOTION_DOT":7.79e-5,"MEAN_MOTION_DDOT":0},{"OBJECT_NAME":"FLOCK 4H-10","OBJECT_ID":"2025-276AZ","EPOCH":"2026-04-26T10:58:48.503712","MEAN_MOTION":15.19223017,"ECCENTRICITY":0.0005045,"INCLINATION":97.4207,"RA_OF_ASC_NODE":190.8282,"ARG_OF_PERICENTER":165.1056,"MEAN_ANOMALY":195.0328,"EPHEMERIS_TYPE":0,"CLASSIFICATION_TYPE":"U","NORAD_CAT_ID":66713,"ELEMENT_SET_NO":999,"REV_AT_EPOCH":2256,"BSTAR":0.00035205,"MEAN_MOTION_DOT":7.351e-5,"MEAN_MOTION_DDOT":0},{"OBJECT_NAME":"FLOCK 4H-11","OBJECT_ID":"2025-276BA","EPOCH":"2026-04-25T18:18:51.757920","MEAN_MOTION":15.21187207,"ECCENTRICITY":0.0003497,"INCLINATION":97.4217,"RA_OF_ASC_NODE":190.4161,"ARG_OF_PERICENTER":172.2023,"MEAN_ANOMALY":187.9268,"EPHEMERIS_TYPE":0,"CLASSIFICATION_TYPE":"U","NORAD_CAT_ID":66714,"ELEMENT_SET_NO":999,"REV_AT_EPOCH":2247,"BSTAR":0.00063473802,"MEAN_MOTION_DOT":0.00014101,"MEAN_MOTION_DDOT":0},{"OBJECT_NAME":"FLOCK 4H-12","OBJECT_ID":"2025-276BB","EPOCH":"2026-04-26T12:27:37.018080","MEAN_MOTION":15.19838701,"ECCENTRICITY":0.0003523,"INCLINATION":97.4204,"RA_OF_ASC_NODE":191.0402,"ARG_OF_PERICENTER":127.1813,"MEAN_ANOMALY":232.9744,"EPHEMERIS_TYPE":0,"CLASSIFICATION_TYPE":"U","NORAD_CAT_ID":66715,"ELEMENT_SET_NO":999,"REV_AT_EPOCH":2289,"BSTAR":0.00034055,"MEAN_MOTION_DOT":7.236e-5,"MEAN_MOTION_DDOT":0},{"OBJECT_NAME":"FLOCK 4H-13","OBJECT_ID":"2025-276BC","EPOCH":"2026-04-25T17:01:58.371168","MEAN_MOTION":15.20093608,"ECCENTRICITY":0.00028546,"INCLINATION":97.4238,"RA_OF_ASC_NODE":190.3601,"ARG_OF_PERICENTER":112.291,"MEAN_ANOMALY":247.8628,"EPHEMERIS_TYPE":0,"CLASSIFICATION_TYPE":"U","NORAD_CAT_ID":66716,"ELEMENT_SET_NO":999,"REV_AT_EPOCH":2246,"BSTAR":0.00029001878,"MEAN_MOTION_DOT":6.197e-5,"MEAN_MOTION_DDOT":0}]
